ONEWEB-0647             
1 56079U 23043AK  23313.94091633 -.00000110  00000+0 -32604-3 0  9997
2 56079  87.8984  88.4067 0001665  83.4042 276.7278 13.15545087 31489
ONEWEB-0651             
1 56080U 23043AL  23314.08827901 -.00000050  00000+0 -16664-3 0  9991
2 56080  87.8978  88.3500 0001989  90.1783 269.9575 13.15548581 31500
ONEWEB-0718             
1 56081U 23043AM  23313.93142106 -.00000032  00000+0 -11825-3 0  9996
2 56081  87.8911  88.3821 0001563 120.9575 239.1709 13.15549449 31493
GSLV R/B                
1 56082U 23043AN  23313.82509455  .00053333  00000+0  91868-3 0  9994
2 56082  87.4127  61.2354 0019277 211.5169 148.4939 15.50655547 35261
ONEWEB-0561             
1 56710U 23068A   23313.92342024  .00000090  00000+0  15474-3 0  9998
2 56710  88.2892  98.6391 0001579  64.8968 295.2337 13.34312661 23889
ONEWEB-0668             
1 56711U 23068B   23313.85770727  .00003376  00000+0  45552-3 0  9996
2 56711  86.7231  69.4067 0014114 343.0146  17.0600 14.78779778 25762
ONEWEB-0676             
1 56712U 23068C   23313.87324524  .00003347  00000+0  45290-3 0  9996
2 56712  86.7187  69.3205 0014119 345.1693  14.9112 14.78661317 25764
ONEWEB-0677             
1 56713U 23068D   23313.90777742  .00000060  00000+0  94574-4 0  9994
2 56713  88.3228  96.6246 0002334  88.1858 271.9551 13.34761613 24065
